[
    {
        "Altitude(m)": 611967.1681168601,
        "Argument of Periapsis(deg)": 0.0,
        "Eccentricity": 0.0,
        "Inclination(deg)": 60.0,
        "Latitude(deg)": 59.14012879229955,
        "Longitude(deg)": -8.908100675910207,
        "Mean Anomaly(deg)": -261.8182,
        "RAAN(deg)": 345.0,
        "Satellite Name": "Test1 1524",
        "Satellite Number": 1524,
        "Semi-Major Axis(m)": 6980739.136638005,
        "Time(s)": 0
    },
    {
        "Altitude(m)": 611934.3685665398,
        "Argument of Periapsis(deg)": 0.00010418945913296404,
        "Eccentricity": 0.0,
        "Inclination(deg)": 60.0,
        "Latitude(deg)": 58.98649284324545,
        "Longitude(deg)": -7.784855019448099,
        "Mean Anomaly(deg)": -261.1980938545382,
        "RAAN(deg)": 344.99957995086027,
        "Satellite Name": "Test1 1524",
        "Satellite Number": 1524,
        "Semi-Major Axis(m)": 6980739.136638005,
        "Time(s)": 10
    }
]